2026-07-15 13:33:35,950 - main - INFO - Configuration C:\Users\Michel Tossaint\OneDrive - ESA\Documents\86 - Ipython Notebooks\SatSVS\tests\obs_sza_subsat\Config.xml validated: 0 warning(s), no errors
2026-07-15 13:33:35,951 - main - INFO - {'constellation_id': 1, 'constellation_name': 'Sentinel-1', 'num_sat': 1, 'num_planes': 1, 'rx_constellation': '1', 'elevation_mask': [], 'el_mask_max': [], 'uere_list': [], 'tle_file_name': '../tests/obs_sza_subsat/sentinel-1.txt', 'obs_inci_angle_start': None, 'obs_inci_angle_stop': None, 'obs_swath_start': None, 'obs_swath_stop': None, 'frontal_area': None, 'mass': None}
2026-07-15 13:33:35,956 - main - INFO - ['Found satellite:', '39634', 'Kepler Elements', "{'epoch_mjd': 58945.03033, 'semi_major_axis': 7073927.613023457, 'eccentricity': 0.0001402, 'inclination': 1.7135991661930727, 'right_ascension': 1.8332065798322439, 'arg_perigee': 1.4609802102594134, 'mean_anomaly': 4.824578744702885}"]
2026-07-15 13:33:36,279 - main - INFO - {'constellation_id': 1, 'station_id': 1, 'station_name': 'Svalbard', 'rx_constellation': '1', 'elevation_mask': [0.08726646259971647], 'el_mask_max': [1.5707963267948966], 'pos_eci': array([0., 0., 0.]), 'vel_eci': array([0., 0., 0.]), 'pos_ecf': array([1254944.19262441,  481104.81267317, 6214020.08271524]), 'vel_ecf': array([0., 0., 0.]), 'lla': array([1.35917515, 0.3660863 , 0.        ]), 'idx_sat_in_view': []}
2026-07-15 13:33:36,282 - main - INFO - {'type': 'Static', 'user_id': 0, 'rx_constellation': '1', 'name': '', 'ltan': -1, 'sso_raan_ref': None, 'sso_raan_ref_mjd': 0.0, 'elevation_mask': [0.08726646259971647], 'el_mask_max': [1.5707963267948966], 'pos_eci': array([0., 0., 0.]), 'vel_eci': array([0., 0., 0.]), 'pos_ecf': array([3923572.96352912,  299147.24517876, 5002803.34543355]), 'vel_ecf': array([0., 0., 0.]), 'norm_ecf': 0, 'lla': array([0.90757121, 0.07609636, 0.        ]), 'num_lat': 0, 'num_lon': 0, 'idx_sat_in_view': [], 'tle_file_name': '', 'kepler': <segments.KeplerSet object at 0x0000013EF7AA3ED0>}
2026-07-15 13:33:36,283 - main - INFO - Loaded simulation, start MJD: 58946.0, stop MJD: 58948.0, size time steps in sec: 60.0
2026-07-15 13:33:36,283 - main - INFO - Loaded 1 number of Station to Spacecraft links
2026-07-15 13:33:36,283 - main - INFO - Loaded 1 number of User to Spacecraft links
2026-07-15 13:33:36,283 - main - INFO - Loaded 1 number of Spacecraft to Spacecraft links
2026-07-15 13:33:36,284 - main - INFO - Finished reading configuration file
2026-07-15 13:33:36,341 - main - INFO - Simulation time: 2020-04-07 00:00:00, time step: 0
2026-07-15 13:33:37,595 - main - INFO - Simulation time: 2020-04-07 01:40:00, time step: 100
2026-07-15 13:33:38,318 - main - INFO - Simulation time: 2020-04-07 03:20:00, time step: 200
2026-07-15 13:33:38,914 - main - INFO - Simulation time: 2020-04-07 05:00:00, time step: 300
2026-07-15 13:33:39,474 - main - INFO - Simulation time: 2020-04-07 06:40:00, time step: 400
2026-07-15 13:33:40,230 - main - INFO - Simulation time: 2020-04-07 08:20:00, time step: 500
2026-07-15 13:33:41,004 - main - INFO - Simulation time: 2020-04-07 10:00:00, time step: 600
2026-07-15 13:33:41,700 - main - INFO - Simulation time: 2020-04-07 11:40:00, time step: 700
2026-07-15 13:33:42,491 - main - INFO - Simulation time: 2020-04-07 13:20:00, time step: 800
2026-07-15 13:33:43,226 - main - INFO - Simulation time: 2020-04-07 15:00:00, time step: 900
2026-07-15 13:33:43,988 - main - INFO - Simulation time: 2020-04-07 16:40:00, time step: 1000
2026-07-15 13:33:44,778 - main - INFO - Simulation time: 2020-04-07 18:20:00, time step: 1100
2026-07-15 13:33:45,427 - main - INFO - Simulation time: 2020-04-07 20:00:00, time step: 1200
2026-07-15 13:33:46,371 - main - INFO - Simulation time: 2020-04-07 21:40:00, time step: 1300
2026-07-15 13:33:47,408 - main - INFO - Simulation time: 2020-04-07 23:20:00, time step: 1400
2026-07-15 13:33:48,276 - main - INFO - Simulation time: 2020-04-08 01:00:00, time step: 1500
2026-07-15 13:33:49,076 - main - INFO - Simulation time: 2020-04-08 02:40:00, time step: 1600
2026-07-15 13:33:49,891 - main - INFO - Simulation time: 2020-04-08 04:20:00, time step: 1700
2026-07-15 13:33:50,724 - main - INFO - Simulation time: 2020-04-08 06:00:00, time step: 1800
2026-07-15 13:33:51,578 - main - INFO - Simulation time: 2020-04-08 07:40:00, time step: 1900
2026-07-15 13:33:52,429 - main - INFO - Simulation time: 2020-04-08 09:20:00, time step: 2000
2026-07-15 13:33:53,207 - main - INFO - Simulation time: 2020-04-08 11:00:00, time step: 2100
2026-07-15 13:33:53,844 - main - INFO - Simulation time: 2020-04-08 12:40:00, time step: 2200
2026-07-15 13:33:54,582 - main - INFO - Simulation time: 2020-04-08 14:20:00, time step: 2300
2026-07-15 13:33:55,479 - main - INFO - Simulation time: 2020-04-08 16:00:00, time step: 2400
2026-07-15 13:33:56,306 - main - INFO - Simulation time: 2020-04-08 17:40:00, time step: 2500
2026-07-15 13:33:57,046 - main - INFO - Simulation time: 2020-04-08 19:20:00, time step: 2600
2026-07-15 13:33:57,730 - main - INFO - Simulation time: 2020-04-08 21:00:00, time step: 2700
2026-07-15 13:33:58,480 - main - INFO - Simulation time: 2020-04-08 22:40:00, time step: 2800
2026-07-15 13:33:59,192 - main - INFO - Plotting analysis obs_sza_subsat
2026-07-15 13:34:00,751 - main - INFO - Saved 3D plot to C:\Users\MICHEL~1\AppData\Local\Temp\satsvs_obs_sza_subsat_i3het77k\obs_sza_subsat_3d.png
2026-07-15 13:34:00,760 - main - INFO - Written data dump obs_sza_subsat.csv (1447 rows)
2026-07-15 13:34:01,373 - main - INFO - Written data dump obs_sza_subsat_lat.csv (16 rows)
